[{"OBJECT_NAME":"NEXSAT-1","OBJECT_ID":"2024-024E","EPOCH":"2026-03-09T22:47:24.778176","MEAN_MOTION":15.32166372,"ECCENTRICITY":0.00099795,"INCLINATION":97.3124,"RA_OF_ASC_NODE":144.1918,"ARG_OF_PERICENTER":108.5709,"MEAN_ANOMALY":251.6617,"EPHEMERIS_TYPE":0,"CLASSIFICATION_TYPE":"U","NORAD_CAT_ID":58921,"ELEMENT_SET_NO":999,"REV_AT_EPOCH":11669,"BSTAR":0.00031433612,"MEAN_MOTION_DOT":9.702e-5,"MEAN_MOTION_DDOT":0},{"OBJECT_NAME":"STARLINK-31997","OBJECT_ID":"2024-132L","EPOCH":"2026-03-09T08:29:51.951264","MEAN_MOTION":15.3018917,"ECCENTRICITY":0.00013541,"INCLINATION":53.161,"RA_OF_ASC_NODE":53.6553,"ARG_OF_PERICENTER":80.5679,"MEAN_ANOMALY":279.5475,"EPHEMERIS_TYPE":0,"CLASSIFICATION_TYPE":"U","NORAD_CAT_ID":60288,"ELEMENT_SET_NO":999,"REV_AT_EPOCH":9151,"BSTAR":-3.6062201e-5,"MEAN_MOTION_DOT":-1.427e-5,"MEAN_MOTION_DDOT":0}]
